NORAD_CAT_ID,OBJECT_NAME,OBJECT_TYPE,EPOCH,MEAN_MOTION,ECCENTRICITY,INCLINATION,RA_OF_ASC_NODE,ARG_OF_PERICENTER,MEAN_ANOMALY,BSTAR,MEAN_MOTION_DOT,MEAN_MOTION_DDOT,TLE_LINE0,TLE_LINE1,TLE_LINE2,SEMIMAJOR_AXIS,PERIOD,APOGEE,PERIGEE,DECAYED
54186.0,STARLINK-5194,PAYLOAD,2023-11-19 21:28:46,15.08841271,0.0001422,53.2163,168.7926,90.8356,269.2799,9.4851e-05,1.222e-05,0.0,0 STARLINK-5194,1 54186U 22141AF  23323.89498098  .00001222  00000-0  94851-4 0  9990,2 54186  53.2163 168.7926 0001422  90.8356 269.2799 15.08841271 59066,6917.877,95.437,540.725,538.758,0.0
54186.0,STARLINK-5194,PAYLOAD,2023-11-20 13:22:38,15.08837791,0.0001428,53.2157,165.8185,88.6857,271.4299,5.0571e-05,5.17e-06,0.0,0 STARLINK-5194,1 54186U 22141AF  23324.55738567  .00000517  00000-0  50571-4 0  9999,2 54186  53.2157 165.8185 0001428  88.6857 271.4299 15.08837791 59164,6917.887,95.438,540.74,538.764,0.0
54186.0,STARLINK-5194,PAYLOAD,2023-11-20 19:44:10,15.08838574,0.0001386,53.2159,164.6292,89.2946,270.8204,5.2836e-05,5.53e-06,0.0,0 STARLINK-5194,1 54186U 22141AF  23324.82234528  .00000553  00000-0  52836-4 0  9993,2 54186  53.2159 164.6292 0001386  89.2946 270.8204 15.08838574 59430,6917.885,95.438,540.709,538.791,0.0
54186.0,STARLINK-5194,PAYLOAD,2023-11-21 13:13:24,15.08842883,0.0001408,53.2159,161.3581,88.8033,271.3121,4.3309e-05,4.01e-06,0.0,0 STARLINK-5194,1 54186U 22141AF  23325.55098324  .00000401  00000-0  43309-4 0  9993,2 54186  53.2159 161.3581 0001408  88.8033 271.3121 15.08842883 59311,6917.872,95.437,540.711,538.763,0.0
54186.0,STARLINK-5194,PAYLOAD,2023-11-21 19:34:57,15.08845748,0.0001415,53.2158,160.1689,87.8406,272.2748,6.3965e-05,7.3e-06,0.0,0 STARLINK-5194,1 54186U 22141AF  23325.81594075  .00000730  00000-0  63965-4 0  9991,2 54186  53.2158 160.1689 0001415  87.8406 272.2748 15.08845748 59359,6917.863,95.437,540.707,538.749,0.0
54186.0,STARLINK-5194,PAYLOAD,2023-11-22 13:04:11,15.0884391,0.0001392,53.2157,156.8976,87.681,272.4342,0.00010706,1.417e-05,0.0,0 STARLINK-5194,1 54186U 22141AF  23326.54457958  .00001417  00000-0  10706-3 0  9997,2 54186  53.2157 156.8976 0001392  87.6810 272.4342 15.08843910 59463,6917.868,95.437,540.696,538.77,0.0
54186.0,STARLINK-5194,PAYLOAD,2023-11-22 19:25:44,15.08845408,0.0001473,53.2164,155.7084,92.2975,267.8186,0.00010902,1.448e-05,0.0,0 STARLINK-5194,1 54186U 22141AF  23326.80953809  .00001448  00000-0  10902-3 0  9994,2 54186  53.2164 155.7084 0001473  92.2975 267.8186 15.08845408 59506,6917.864,95.437,540.748,538.71,0.0
54186.0,STARLINK-5194,PAYLOAD,2023-11-23 12:54:59,15.08837967,0.0001663,53.2176,152.4387,100.9958,259.1221,1.2402e-05,-9.1e-07,0.0,0 STARLINK-5194,1 54186U 22141AF  23327.53818552 -.00000091  00000-0  12402-4 0  9992,2 54186  53.2176 152.4387 0001663 100.9958 259.1221 15.08837967 59615,6917.887,95.438,540.902,538.601,0.0
54186.0,STARLINK-5194,PAYLOAD,2023-11-23 19:16:32,15.0883365,0.0001573,53.2172,151.2485,104.7926,255.3241,-3.7976e-05,-8.92e-06,0.0,0 STARLINK-5194,1 54186U 22141AF  23327.80314909 -.00000892  00000-0 -37976-4 0  9992,2 54186  53.2172 151.2485 0001573 104.7926 255.3241 15.08833650 59888,6917.9,95.438,540.853,538.677,0.0
54186.0,STARLINK-5194,PAYLOAD,2023-11-24 11:10:23,15.0883703,0.0001514,53.2172,148.2746,105.307,254.8089,-4.0901e-06,-3.53e-06,0.0,0 STARLINK-5194,1 54186U 22141AF  23328.46554780 -.00000353  00000-0 -40901-5 0  9993,2 54186  53.2172 148.2746 0001514 105.3070 254.8089 15.08837030 59752,6917.889,95.438,540.802,538.707,0.0
54186.0,STARLINK-5194,PAYLOAD,2023-11-24 22:18:05,15.08838742,0.0001535,53.217,146.1921,110.0649,250.0509,6.7183e-06,-1.81e-06,0.0,0 STARLINK-5194,1 54186U 22141AF  23328.92922699 -.00000181  00000-0  67183-5 0  9991,2 54186  53.2170 146.1921 0001535 110.0649 250.0509 15.08838742 59824,6917.884,95.438,540.811,538.687,0.0
54186.0,STARLINK-5194,PAYLOAD,2023-11-25 17:22:42,15.08839752,0.0001371,53.2168,142.6233,102.2808,257.8337,0.00013373,1.841e-05,0.0,0 STARLINK-5194,1 54186U 22141AF  23329.72410467  .00001841  00000-0  13373-3 0  9998,2 54186  53.2168 142.6233 0001371 102.2808 257.8337 15.08839752 59945,6917.881,95.438,540.695,538.798,0.0
54186.0,STARLINK-5194,PAYLOAD,2023-11-26 18:48:52,15.08840919,0.0001383,53.2169,137.8667,91.0425,269.0725,7.2645e-05,8.68e-06,0.0,0 STARLINK-5194,1 54186U 22141AF  23330.78394636  .00000868  00000-0  72645-4 0  9991,2 54186  53.2169 137.8667 0001383  91.0425 269.0725 15.08840919 60334,6917.878,95.437,540.699,538.786,0.0
54186.0,STARLINK-5194,PAYLOAD,2023-11-27 10:42:43,15.08827011,0.0001133,53.2175,134.8931,120.5161,239.5943,0.00077845,0.00012118,0.0,0 STARLINK-5194,1 54186U 22141AF  23331.44633184  .00012118  00000-0  77845-3 0  9996,2 54186  53.2175 134.8931 0001133 120.5161 239.5943 15.08827011 60433,6917.92,95.438,540.569,539.001,0.0
54186.0,STARLINK-5194,PAYLOAD,2023-11-27 18:39:40,15.08826882,0.0001373,53.2171,133.4058,98.8608,261.2539,-0.00011788,-2.163e-05,0.0,0 STARLINK-5194,1 54186U 22141AF  23331.77755020 -.00002163  00000-0 -11788-3 0  9991,2 54186  53.2171 133.4058 0001373  98.8608 261.2539 15.08826882 60486,6917.92,95.438,540.735,538.836,0.0
54186.0,STARLINK-5194,PAYLOAD,2023-11-28 10:33:31,15.08864171,0.0002628,53.2171,130.4307,155.1505,204.9614,-0.00056905,-9.34e-05,0.0,0 STARLINK-5194,1 54186U 22141AF  23332.43994821 -.00009340  00000-0 -56905-3 0  9993,2 54186  53.2171 130.4307 0002628 155.1505 204.9614 15.08864171 60589,6917.807,95.436,541.49,537.854,0.0
54186.0,STARLINK-5194,PAYLOAD,2023-11-28 16:55:04,15.08834269,0.0001199,53.2161,129.2427,86.5714,273.5416,-3.8617e-05,-9.02e-06,0.0,0 STARLINK-5194,1 54186U 22141AF  23332.70490792 -.00000902  00000-0 -38617-4 0  9997,2 54186  53.2161 129.2427 0001199  86.5714 273.5416 15.08834269 60394,6917.898,95.438,540.592,538.933,0.0
54186.0,STARLINK-5194,PAYLOAD,2023-11-29 13:35:04,15.0883054,0.0001309,53.2161,125.3768,78.9893,281.1246,0.00022649,3.318e-05,0.0,0 STARLINK-5194,1 54186U 22141AF  23333.56602351  .00003318  00000-0  22649-3 0  9997,2 54186  53.2161 125.3768 0001309  78.9893 281.1246 15.08830540 60524,6917.909,95.438,540.68,538.869,0.0
54186.0,STARLINK-5194,PAYLOAD,2023-11-30 15:01:15,15.08836745,0.0001218,53.2162,120.6187,80.9382,279.1748,0.00011647,1.566e-05,0.0,0 STARLINK-5194,1 54186U 22141AF  23334.62587048  .00001566  00000-0  11647-3 0  9999,2 54186  53.2162 120.6187 0001218  80.9382 279.1748 15.08836745 60913,6917.89,95.438,540.598,538.913,0.0
54186.0,STARLINK-5194,PAYLOAD,2023-12-01 16:27:25,15.08845442,0.0001533,53.2184,115.8636,102.8575,257.2588,9.9481e-05,1.296e-05,0.0,0 STARLINK-5194,1 54186U 22141AF  23335.68570633  .00001296  00000-0  99481-4 0  9991,2 54186  53.2184 115.8636 0001533 102.8575 257.2588 15.08845442 61071,6917.864,95.437,540.789,538.668,0.0
54186.0,STARLINK-5194,PAYLOAD,2023-12-02 14:42:48,15.08847601,0.0001253,53.2169,111.6964,87.9025,272.2111,0.00014076,1.953e-05,0.0,0 STARLINK-5194,1 54186U 22141AF  23336.61306150  .00001953  00000-0  14076-3 0  9992,2 54186  53.2169 111.6964 0001253  87.9025 272.2111 15.08847601 60981,6917.857,95.437,540.589,538.855,0.0
54186.0,STARLINK-5194,PAYLOAD,2023-12-03 09:47:28,15.08823343,0.0001164,53.2171,108.1261,96.0111,264.1014,-0.00013111,-2.373e-05,0.0,0 STARLINK-5194,1 54186U 22141AF  23337.40797075 -.00002373  00000-0 -13111-3 0  9998,2 54186  53.2171 108.1261 0001164  96.0111 264.1014 15.08823343 61332,6917.931,95.439,540.602,538.991,0.0
54186.0,STARLINK-5194,PAYLOAD,2023-12-03 14:33:38,15.08816394,0.0001254,53.2174,107.235,85.9777,274.1358,-0.00018552,-3.237e-05,0.0,0 STARLINK-5194,1 54186U 22141AF  23337.60669943 -.00003237  00000-0 -18552-3 0  9996,2 54186  53.2174 107.2350 0001254  85.9777 274.1358 15.08816394 61137,6917.953,95.439,540.685,538.95,0.0
54186.0,STARLINK-5194,PAYLOAD,2023-12-04 08:02:53,15.08824355,0.0001269,53.2184,103.9598,108.9947,251.1183,-9.7129e-05,-1.833e-05,0.0,0 STARLINK-5194,1 54186U 22141AF  23338.33534222 -.00001833  00000-0 -97129-4 0  9996,2 54186  53.2184 103.9598 0001269 108.9947 251.1183 15.08824355 61470,6917.928,95.439,540.671,538.915,0.0
54186.0,STARLINK-5194,PAYLOAD,2023-12-04 12:49:02,15.08795259,7.74e-05,53.218,103.0803,71.0871,289.0205,0.00042265,6.437e-05,0.0,0 STARLINK-5194,1 54186U 22141AF  23338.53406001  .00006437  00000-0  42265-3 0  9994,2 54186  53.2180 103.0803 0000774  71.0871 289.0205 15.08795259 61275,6918.017,95.44,540.418,539.347,0.0
54186.0,STARLINK-5194,PAYLOAD,2023-12-05 11:04:24,15.08837576,0.0001184,53.2164,98.9113,102.4886,257.6238,0.00038254,5.805e-05,0.0,0 STARLINK-5194,1 54186U 22141AF  23339.46140038  .00005805  00000-0  38254-3 0  9993,2 54186  53.2164  98.9113 0001184 102.4886 257.6238 15.08837576 61641,6917.888,95.438,540.572,538.934,0.0
54186.0,STARLINK-5194,PAYLOAD,2023-12-05 12:39:48,15.0883983,9.97e-05,53.2169,98.6144,100.9819,259.1286,0.00040497,6.163e-05,0.0,0 STARLINK-5194,1 54186U 22141AF  23339.52763908  .00006163  00000-0  40497-3 0  9997,2 54186  53.2169  98.6144 0000997 100.9819 259.1286 15.08839830 61428,6917.881,95.438,540.436,539.056,0.0
54186.0,STARLINK-5194,PAYLOAD,2023-12-06 07:44:26,15.08829551,0.0001369,53.2166,95.05,47.8926,312.2183,0.00039657,6.027e-05,0.0,0 STARLINK-5194,1 54186U 22141AF  23340.32252441  .00006027  00000-0  39657-3 0  9997,2 54186  53.2166  95.0500 0001369  47.8926 312.2183 15.08829551 61778,6917.912,95.438,540.724,538.83,0.0
54186.0,STARLINK-5194,PAYLOAD,2023-12-06 12:30:34,15.08907718,4.28e-05,53.2176,94.1537,63.8406,296.263,-0.00073933,-0.00012056,0.0,0 STARLINK-5194,1 54186U 22141AF  23340.52122741 -.00012056  00000-0 -73933-3 0  9994,2 54186  53.2176  94.1537 0000428  63.8406 296.2630 15.08907718 61573,6917.673,95.433,539.834,539.242,0.0
54186.0,STARLINK-5194,PAYLOAD,2023-12-07 12:21:22,15.08843894,0.0001275,53.2175,89.6956,55.2982,304.813,-6.2038e-05,-1.275e-05,0.0,0 STARLINK-5194,1 54186U 22141AF  23341.51484325 -.00001275  00000-0 -62038-4 0  9999,2 54186  53.2175  89.6956 0001275  55.2982 304.8130 15.08843894 61958,6917.868,95.437,540.616,538.851,0.0
